GPS BIIR-5 (PRN 15)
1 26360U 00025A   25030.12345678  .00000000  00000+0  00000+0 0  9997
2 26360  55.0000 000.0000 0000000  00.0000 000.0000  2.00561234567890

GPS BIIR-6 (PRN 16)
1 26690U 01008A   25030.12345678  .00000000  00000+0  00000+0 0  9997
2 26690  55.0000 000.0000 0000000  00.0000 000.0000  2.00561234567890
